DMSP 5D-3 F16 (USA 172) 
1 28054U 03048A   26165.19658749  .00000014  00000+0  31104-4 0  9990
2 28054  98.9891 189.0051 0007619 147.9841 287.9915 14.14482907169069
METEOSAT-9 (MSG-2)      
1 28912U 05049B   26164.84223331  .00000126  00000+0  00000+0 0  9992
2 28912   9.3538  54.2002 0001543 346.3460 210.4526  1.00270562  6968
DMSP 5D-3 F17 (USA 191) 
1 29522U 06050A   26165.19982125  .00000036  00000+0  40796-4 0  9996
2 29522  98.7378 171.8310 0011235  67.1624 293.0735 14.14992719 12002
FENGYUN 3A              
1 32958U 08026A   26165.08701906  .00000055  00000+0  46595-4 0  9996
2 32958  98.6883 105.9781 0009476 131.7324 228.4664 14.19570531934968
GOES 14                 
1 35491U 09033A   26164.93299235 -.00000270  00000+0  00000+0 0  9996
2 35491   1.6815  83.0799 0001714  10.3122 288.4310  1.00111819  6557
DMSP 5D-3 F18 (USA 210) 
1 35951U 09057A   26165.17100178  .00000214  00000+0  13404-3 0  9990
2 35951  98.9037 145.9466 0009855 259.0856 100.9208 14.14895253859169
EWS-G2 (GOES 15)        
1 36411U 10008A   26165.20650102  .00000026  00000+0  00000+0 0  9996
2 36411   1.2692  82.9108 0005356  41.7889 275.8340  1.00275741 59607
COMS 1                  
1 36744U 10032A   26164.85864462  .00000003  00000+0  00000+0 0  9993
2 36744   4.7961  75.3929 0011446  11.6277 210.9948  0.99162789 51053
FENGYUN 3B              
1 37214U 10059A   26165.19729222  .00000296  00000+0  17645-3 0  9998
2 37214  98.9626 211.1989 0021773 192.6707 254.5978 14.14841710807008
SUOMI NPP               
1 37849U 11061A   26165.16866992  .00000049  00000+0  44084-4 0  9993
2 37849  98.7954 106.0653 0001705  14.1024 346.0200 14.19516778758016
METEOSAT-10 (MSG-3)     
1 38552U 12035B   26165.04714116  .00000001  00000+0  00000+0 0  9997
2 38552   4.6640  61.0333 0001428 328.3191 250.2757  1.00276246 50824
METOP-B                 
1 38771U 12049A   26165.16279742  .00000092  00000+0  62027-4 0  9991
2 38771  98.6505 216.7222 0002418  27.0817 333.0487 14.21431917712835
INSAT-3D                
1 39216U 13038B   26164.93013235 -.00000331  00000+0  00000+0 0  9997
2 39216   1.9175  82.5789 0000558 308.0873 335.9433  1.00270661 47040
FENGYUN 3C              
1 39260U 13052A   26165.21687427  .00000054  00000+0  48517-4 0  9995
2 39260  98.4986 139.2281 0015391  35.8416 324.3789 14.15754453658147
METEOR-M 2              
1 40069U 14037A   26165.18922047  .00000453  00000+0  22625-3 0  9998
2 40069  98.5105 141.0335 0006866  51.5247 308.6546 14.21462187618896
HIMAWARI-8              
1 40267U 14060A   26164.93238568 -.00000266  00000+0  00000+0 0  9996
2 40267   0.0084 313.3740 0000979 133.4089 291.7739  1.00272750 42724
FENGYUN 2G              
1 40367U 14090A   26164.78685799 -.00000297  00000+0  00000+0 0  9999
2 40367   5.6288  72.8570 0003976 153.7441  58.4326  1.00273878 41964
METEOSAT-11 (MSG-4)     
1 40732U 15034A   26165.19152666  .00000071  00000+0  00000+0 0  9991
2 40732   3.1942  71.1280 0001759   9.7392 260.1554  1.00279423  7185
ELEKTRO-L 2             
1 41105U 15074A   26165.04412756 -.00000114  00000+0  00000+0 0  9992
2 41105   6.6845  70.5612 0000705 243.9352 309.2359  1.00270718 38472
SENTINEL-3A             
1 41335U 16011A   26165.20097506  .00000104  00000+0  61016-4 0  9996
2 41335  98.6249 232.6274 0001386 102.6582 257.4753 14.26739233537631
INSAT-3DR               
1 41752U 16054A   26165.16830656 -.00000068  00000+0  00000+0 0  9993
2 41752   0.0985  86.7947 0010636 187.1090 123.1361  1.00270810 35785
HIMAWARI-9              
1 41836U 16064A   26164.93238568 -.00000265  00000+0  00000+0 0  9994
2 41836   0.0479 148.3842 0000810 350.9423 239.3458  1.00270150 35175
GOES 16                 
1 41866U 16071A   26164.88370873 -.00000081  00000+0  00000+0 0  9991
2 41866   0.3323  85.5371 0000210 285.5683 104.5318  1.00270023 35079
FENGYUN 4A              
1 41882U 16077A   26165.00032038 -.00000349  00000+0  00000+0 0  9995
2 41882   2.3133  80.3223 0008684 152.8015 153.0792  1.00270273 34896
CYGFM05                 
1 41884U 16078A   26164.71624327  .00024006  00000+0  32685-3 0  9996
2 41884  34.9574 283.5706 0006752 115.6149 244.5273 15.56530665528214
CYGFM04                 
1 41885U 16078B   26164.63366532  .00029269  00000+0  33168-3 0  9992
2 41885  34.9325 251.9875 0006261 161.5646 198.5308 15.61331969528446
CYGFM02                 
1 41886U 16078C   26164.64112449  .00034896  00000+0  35159-3 0  9994
2 41886  34.9406 246.5765 0007226 162.7791 197.3182 15.64293881528610
CYGFM01                 
1 41887U 16078D   26165.02700981  .00025699  00000+0  34090-3 0  9996
2 41887  34.9405 282.5968 0006537 112.3531 247.7887 15.57218128528213
CYGFM08                 
1 41888U 16078E   26164.67190044  .00028443  00000+0  34112-3 0  9995
2 41888  34.9434 264.6224 0007876 142.8564 217.2707 15.59850919528421
CYGFM07                 
1 41890U 16078G   26164.95123538  .00028500  00000+0  34043-3 0  9990
2 41890  34.9447 251.1080 0006731 163.9910 196.1028 15.59966765528492
CYGFM03                 
1 41891U 16078H   26164.66624452  .00027393  00000+0  32763-3 0  9996
2 41891  34.9403 254.9438 0006041 147.8515 212.2580 15.59943966528423
